#aV2006  6  3  0  0   .00000000      96 DD+AD WGS84 FIT  NGA
## 1377 518400.00000000   900.00000000 53889  .0000000000000
+   29     1  2  3  4  5  6  7  8  9 10 11 13 14 15 16 17 18
+         19 20 21 22 23 24 25 26 27 28 29 30  0  0  0  0  0
+          0  0  0  0  0  0  0  0  0  0  0  0  0  0  0  0  0
+          0  0  0  0  0  0  0  0  0  0  0  0  0  0  0  0  0
+          0  0  0  0  0  0  0  0  0  0  0  0  0  0  0  0  0
++         0  0  0  0  0  0  0  0  0  0  0  0  0  0  0  0  0
++         0  0  0  0  0  0  0  0  0  0  0  0  0  0  0  0  0
++         0  0  0  0  0  0  0  0  0  0  0  0  0  0  0  0  0
++         0  0  0  0  0  0  0  0  0  0  0  0  0  0  0  0  0
++         0  0  0  0  0  0  0  0  0  0  0  0  0  0  0  0  0
%c cc cc ccc ccc cccc cccc cccc cccc ccccc ccccc ccccc ccccc
%c cc cc ccc ccc cccc cccc cccc cccc ccccc ccccc ccccc ccccc
%f  0.0000000  0.000000000  0.00000000000  0.000000000000000
%f  0.0000000  0.000000000  0.00000000000  0.000000000000000
%i    0    0    0    0      0      0      0      0         0
%i    0    0    0    0      0      0      0      0         0
/*      NGA, ST. LOUIS,MO.                                  
/*   EPHEMERIS COMPUTED FROM  3 DAYS OF DATA                
/* CCCCCCCCCCCCCCCCCCCCCCCCCCCCCCCCCCCCCCCCCCCCCCCCCCCCCCCCC
/* CCCCCCCCCCCCCCCCCCCCCCCCCCCCCCCCCCCCCCCCCCCCCCCCCCCCCCCCC
*  2006  6  3 13 45   .00000000                                                 
P  1 -14719.651080  17067.088034 -13821.210132     57.028114                    
V  1   3650.557563 -17546.478999 -25248.813717       .025056                    
P  2  21591.608310 -12411.530792   8665.137672      2.006984                    
V  2  11853.593501    -62.455029 -28976.905054       .029653                    
P  3 -11526.117904  21236.567635  10505.987049    103.823754                    
V  3  -1375.908157 -14174.658564  27033.691711       .030786                    
P  4  26134.407861  -5482.946023  -1644.696053    245.396172                    
V  4  -1255.055887   3266.022828 -31196.156840       .086748                    
P  5  -8854.303465 -20910.828317 -14109.640214     80.076393                    
V  5  15088.930094   9357.721850 -23502.336777       .471710                    
P  6  -9150.795031 -17987.875050  17427.643405    550.839900                    
V  6   6910.121673 -20852.862403 -18172.286149       .141526                    
P  7 -16483.064440   4813.638009  20633.966743    540.234803                    
V  7   4051.887785 -25197.806716   9140.757363       .013652                    
P  8  24995.099066    783.628428   9386.120058    -67.775637                    
V  8 -11246.085012   4554.666163  28726.483810      -.011828                    
P  9   2359.232985 -16348.876775 -21295.166799     22.831924                    
V  9  24878.298206  -7024.388508   8647.746136       .014419                    
P 10   8938.120185 -12065.228769  21789.981747     84.444573                    
V 10  19680.119835  19763.777303   3158.186461       .005690                    
P 11    645.241433  17296.391753 -20170.072386    331.119551                    
V 11 -24115.297828   9247.146755   7433.747679       .024101                    
P 13   7269.721774  17811.677504  18249.818092     66.643702                    
V 13  -7439.606464  22065.368649 -18422.964053       .029014                    
P 14 -15284.363340   1730.355988 -21579.978753    -12.729984                    
V 14   6826.693799 -26635.113662  -7000.322235       .007685                    
P 15 -25124.205560  -1503.377568   8950.123233    622.832855                    
V 15  10792.120828  -4552.267496  28620.438141       .059998                    
P 16 -13554.162608   7722.804324  21596.475938     47.052947                    
V 16 -18917.401928 -19541.871178  -4796.751765       .025569                    
P 17  15622.344834   -311.229940 -21474.343778     96.684446                    
V 17  -6430.392980  26501.035315  -5158.169690       .019138                    
P 18 -19405.521242 -18177.751023  -2631.317557   -237.919563                    
V 18   -400.146804  -4314.987360  31252.599087      -.014889                    
P 19  -7504.968198  25421.244821  -1085.570885     -7.435694                    
V 19  -3276.500728    519.638813  31686.882546       .020828                    
P 20  10451.641209  21534.432852 -11638.564363    -25.931456                    
V 20 -12199.223131  -8432.111581 -26745.395596       .005493                    
P 21 -20094.359435  -7304.031464  16148.079924     33.096752                    
V 21  19264.781316  -6457.243790  20597.837649       .025399                    
P 22 -20849.906424  -7754.238495 -14370.116205    102.738056                    
V 22 -10807.725522 -15206.757909  23625.340343       .037777                    
P 23    153.947570  24767.116959   9273.359399    140.252629                    
V 23  -5409.474282  10943.070865 -28994.605393      -.006871                    
P 24  24090.744187   2543.248190 -10963.096337     10.671732                    
V 24 -13349.227025   5313.295968 -27256.025800       .027631                    
P 25 -23937.756637  11367.124538   3080.184591    199.851968                    
V 25  -4202.219892  -1459.754188 -31206.019758       .815206                    
P 26   8118.021077 -24886.608301   1336.697142   -135.127880                    
V 26   1688.755727   2782.528519  32735.225541      -.119894                    
P 27  19043.616537   6828.354532  17978.553084     51.733782                    
V 27 -19942.307391   8205.259554  18318.655257       .016902                    
P 28  21547.370053  10985.851176 -11072.229773     26.023757                    
V 28   8417.589310  11877.412375  27109.069161      -.007672                    
P 29  10015.036898 -23773.065281   5892.791318    614.582624                    
V 29    282.500208   7516.136268  31338.510284       .052520                    
P 30 -17380.328969 -19837.893108  -3925.839246      -.060264                    
V 30   5551.982160    813.884067 -30784.551427      -.001147                    
EOF
